{"type": "FeatureCollection", "features": [ {"type": "Feature", "properties": {"norad_id": 44804, "name": "CARTOSAT-3", "group": "resource", "lat": -81.54418724156461, "lon": 118.69737079960639, "alt_km": 522.2144981962201, "timestamp": "2025-12-23T11:34:47.839659+00:00", "meta": {"OBJECT_NAME": "CARTOSAT-3", "OBJECT_ID": "2019-081A", "EPOCH": "2025-12-23T04:03:16.017696", "MEAN_MOTION": 15.19238109, "ECCENTRICITY": 0.001369, "INCLINATION": 97.4569, "RA_OF_ASC_NODE": 56.6191, "ARG_OF_PERICENTER": 50.5641, "MEAN_ANOMALY": 309.6803, "EPHEMERIS_TYPE": 0, "CLASSIFICATION_TYPE": "U", "NORAD_CAT_ID": 44804, "ELEMENT_SET_NO": 999, "REV_AT_EPOCH": 33674, "BSTAR": 0.00027465, "MEAN_MOTION_DOT": 5.732e-05, "MEAN_MOTION_DDOT": 0}, "tle": {"line1": "1 44804U 19081A   25357.16893539  .00005732  00000+0  27465-3 0  9998", "line2": "2 44804  97.4569  56.6191 0013690  50.5641 309.6803 15.19238109336741"}}, "geometry": {"type": "Point", "coordinates": [118.69737079960639, -81.54418724156461]}}, {"type": "Feature", "properties": {"norad_id": 44819, "name": "GAOFEN-12 01", "group": "resource", "lat": -29.749644198653222, "lon": 7.982152165599715, "alt_km": 634.3679486823576, "timestamp": "2025-12-23T11:34:47.839668+00:00", "meta": {"OBJECT_NAME": "GAOFEN-12 01", "OBJECT_ID": "2019-082A", "EPOCH": "2025-12-23T05:13:40.626048", "MEAN_MOTION": 14.80668998, "ECCENTRICITY": 0.0002054, "INCLINATION": 97.8124, "RA_OF_ASC_NODE": 3.2238, "ARG_OF_PERICENTER": 185.1344, "MEAN_ANOMALY": 174.9847, "EPHEMERIS_TYPE": 0, "CLASSIFICATION_TYPE": "U", "NORAD_CAT_ID": 44819, "ELEMENT_SET_NO": 999, "REV_AT_EPOCH": 32805, "BSTAR": 6.7636e-05, "MEAN_MOTION_DOT": 4.69e-06, "MEAN_MOTION_DDOT": 0}, "tle": {"line1": "1 44819U 19082A   25357.21783132  .00000469  00000+0  67636-4 0  9995", "line2": "2 44819  97.8124   3.2238 0002054 185.1344 174.9847 14.80668998328051"}}, "geometry": {"type": "Point", "coordinates": [7.982152165599715, -29.749644198653222]}}, {"type": "Feature", "properties": {"norad_id": 44873, "name": "CSG-1", "group": "resource", "lat": 40.85191495091929, "lon": 5.523637456655703, "alt_km": 618.7189272327232, "timestamp": "2025-12-23T11:34:47.839687+00:00", "meta": {"OBJECT_NAME": "CSG-1", "OBJECT_ID": "2019-092A", "EPOCH": "2025-12-23T01:14:07.325088", "MEAN_MOTION": 14.82153716, "ECCENTRICITY": 0.0001475, "INCLINATION": 97.8804, "RA_OF_ASC_NODE": 178.2202, "ARG_OF_PERICENTER": 85.6043, "MEAN_ANOMALY": 274.5338, "EPHEMERIS_TYPE": 0, "CLASSIFICATION_TYPE": "U", "NORAD_CAT_ID": 44873, "ELEMENT_SET_NO": 999, "REV_AT_EPOCH": 32538, "BSTAR": 7.748e-05, "MEAN_MOTION_DOT": 5.65e-06, "MEAN_MOTION_DDOT": 0}, "tle": {"line1": "1 44873U 19092A   25357.05147367  .00000565  00000+0  77480-4 0  9997", "line2": "2 44873  97.8804 178.2202 0001475  85.6043 274.5338 14.82153716325380"}}, "geometry": {"type": "Point", "coordinates": [5.523637456655703, 40.85191495091929]}}, {"type": "Feature", "properties": {"norad_id": 46277, "name": "NEMO-HD", "group": "resource", "lat": 27.072121218691244, "lon": 52.729432932663386, "alt_km": 442.81358594761514, "timestamp": "2025-12-23T11:34:47.839697+00:00", "meta": {"OBJECT_NAME": "NEMO-HD", "OBJECT_ID": "2020-061F", "EPOCH": "2025-12-23T03:40:01.996032", "MEAN_MOTION": 15.40531255, "ECCENTRICITY": 0.0001207, "INCLINATION": 97.2192, "RA_OF_ASC_NODE": 56.1186, "ARG_OF_PERICENTER": 52.076, "MEAN_ANOMALY": 308.0596, "EPHEMERIS_TYPE": 0, "CLASSIFICATION_TYPE": "U", "NORAD_CAT_ID": 46277, "ELEMENT_SET_NO": 999, "REV_AT_EPOCH": 29484, "BSTAR": 0.00027425, "MEAN_MOTION_DOT": 0.00011056, "MEAN_MOTION_DDOT": 0}, "tle": {"line1": "1 46277U 20061F   25357.15280088  .00011056  00000+0  27425-3 0  9994", "line2": "2 46277  97.2192  56.1186 0001207  52.0760 308.0596 15.40531255294844"}}, "geometry": {"type": "Point", "coordinates": [52.729432932663386, 27.072121218691244]}}, {"type": "Feature", "properties": {"norad_id": 46984, "name": "SENTINEL-6A", "group": "resource", "lat": -42.02103562709489, "lon": 116.37587289990579, "alt_km": 1339.0521594563197, "timestamp": "2025-12-23T11:34:47.839706+00:00", "meta": {"OBJECT_NAME": "SENTINEL-6A", "OBJECT_ID": "2020-086A", "EPOCH": "2025-12-23T02:27:21.718080", "MEAN_MOTION": 12.80930775, "ECCENTRICITY": 0.0007743, "INCLINATION": 66.0397, "RA_OF_ASC_NODE": 140.7845, "ARG_OF_PERICENTER": 269.406, "MEAN_ANOMALY": 90.6068, "EPHEMERIS_TYPE": 0, "CLASSIFICATION_TYPE": "U", "NORAD_CAT_ID": 46984, "ELEMENT_SET_NO": 999, "REV_AT_EPOCH": 23777, "BSTAR": -4.1854e-05, "MEAN_MOTION_DOT": -7.1e-07, "MEAN_MOTION_DDOT": 0}, "tle": {"line1": "1 46984U 20086A   25357.10233470 -.00000071  00000+0 -41854-4 0  9994", "line2": "2 46984  66.0397 140.7845 0007743 269.4060  90.6068 12.80930775237778"}}, "geometry": {"type": "Point", "coordinates": [116.37587289990579, -42.02103562709489]}}, {"type": "Feature", "properties": {"norad_id": 48079, "name": "GAOFEN-12 02", "group": "resource", "lat": -17.797818787633727, "lon": -5.979824962611088, "alt_km": 632.4782814564642, "timestamp": "2025-12-23T11:34:47.839716+00:00", "meta": {"OBJECT_NAME": "GAOFEN-12 02", "OBJECT_ID": "2021-026A", "EPOCH": "2025-12-23T05:10:24.739968", "MEAN_MOTION": 14.80687086, "ECCENTRICITY": 0.0003584, "INCLINATION": 97.9856, "RA_OF_ASC_NODE": 351.1716, "ARG_OF_PERICENTER": 80.0984, "MEAN_ANOMALY": 280.0633, "EPHEMERIS_TYPE": 0, "CLASSIFICATION_TYPE": "U", "NORAD_CAT_ID": 48079, "ELEMENT_SET_NO": 999, "REV_AT_EPOCH": 25572, "BSTAR": 6.9985e-05, "MEAN_MOTION_DOT": 4.85e-06, "MEAN_MOTION_DDOT": 0}, "tle": {"line1": "1 48079U 21026A   25357.21556412  .00000485  00000+0  69985-4 0  9994", "line2": "2 48079  97.9856 351.1716 0003584  80.0984 280.0633 14.80687086255728"}}, "geometry": {"type": "Point", "coordinates": [-5.979824962611088, -17.797818787633727]}}, {"type": "Feature", "properties": {"norad_id": 48268, "name": "PLEIADES NEO 3", "group": "resource", "lat": 81.67336267817113, "lon": -1.6873111150201783, "alt_km": 615.6067736043906, "timestamp": "2025-12-23T11:34:47.839725+00:00", "meta": {"OBJECT_NAME": "PLEIADES NEO 3", "OBJECT_ID": "2021-034A", "EPOCH": "2025-12-23T01:27:45.261792", "MEAN_MOTION": 14.81674157, "ECCENTRICITY": 0.0001406, "INCLINATION": 97.8947, "RA_OF_ASC_NODE": 69.354, "ARG_OF_PERICENTER": 89.445, "MEAN_ANOMALY": 270.6924, "EPHEMERIS_TYPE": 0, "CLASSIFICATION_TYPE": "U", "NORAD_CAT_ID": 48268, "ELEMENT_SET_NO": 999, "REV_AT_EPOCH": 25157, "BSTAR": 6.1566e-06, "MEAN_MOTION_DOT": -4e-08, "MEAN_MOTION_DDOT": 0}, "tle": {"line1": "1 48268U 21034A   25357.06094053 -.00000004  00000+0  61566-5 0  9990", "line2": "2 48268  97.8947  69.3540 0001406  89.4450 270.6924 14.81674157251576"}}, "geometry": {"type": "Point", "coordinates": [-1.6873111150201783, 81.67336267817113]}}, {"type": "Feature", "properties": {"norad_id": 49070, "name": "PLEIADES NEO 4", "group": "resource", "lat": -81.68709103171214, "lon": 178.01174629383033, "alt_km": 632.3301829430511, "timestamp": "2025-12-23T11:34:47.839733+00:00", "meta": {"OBJECT_NAME": "PLEIADES NEO 4", "OBJECT_ID": "2021-073E", "EPOCH": "2025-12-20T17:32:43.596096", "MEAN_MOTION": 14.81672155, "ECCENTRICITY": 0.00013181, "INCLINATION": 97.8951, "RA_OF_ASC_NODE": 67.0539, "ARG_OF_PERICENTER": 90.4145, "MEAN_ANOMALY": 269.7219, "EPHEMERIS_TYPE": 0, "CLASSIFICATION_TYPE": "U", "NORAD_CAT_ID": 49070, "ELEMENT_SET_NO": 999, "REV_AT_EPOCH": 23494, "BSTAR": -3.817265e-05, "MEAN_MOTION_DOT": -3.52e-06, "MEAN_MOTION_DDOT": 0}, "tle": {"line1": "1 49070U 21073E   25354.73106014 -.00000352  00000+0 -38173-4 0  9991", "line2": "2 49070  97.8951  67.0539 0001318  90.4145 269.7219 14.81672155234945"}}, "geometry": {"type": "Point", "coordinates": [178.01174629383033, -81.68709103171214]}}, {"type": "Feature", "properties": {"norad_id": 49260, "name": "LANDSAT 9", "group": "resource", "lat": 54.60532984878294, "lon": 53.71616518353982, "alt_km": 696.712690164738, "timestamp": "2025-12-23T11:34:47.839742+00:00", "meta": {"OBJECT_NAME": "LANDSAT 9", "OBJECT_ID": "2021-088A", "EPOCH": "2025-12-23T01:26:16.654272", "MEAN_MOTION": 14.57108252, "ECCENTRICITY": 0.0001099, "INCLINATION": 98.208, "RA_OF_ASC_NODE": 65.0208, "ARG_OF_PERICENTER": 92.5758, "MEAN_ANOMALY": 267.5566, "EPHEMERIS_TYPE": 0, "CLASSIFICATION_TYPE": "U", "NORAD_CAT_ID": 49260, "ELEMENT_SET_NO": 999, "REV_AT_EPOCH": 22535, "BSTAR": 0.00010761, "MEAN_MOTION_DOT": 4.4e-06, "MEAN_MOTION_DDOT": 0}, "tle": {"line1": "1 49260U 21088A   25357.05991498  .00000440  00000+0  10761-3 0  9992", "line2": "2 49260  98.2080  65.0208 0001099  92.5758 267.5566 14.57108252225355"}}, "geometry": {"type": "Point", "coordinates": [53.71616518353982, 54.60532984878294]}}, {"type": "Feature", "properties": {"norad_id": 51444, "name": "CSG-2", "group": "resource", "lat": -41.03972855758449, "lon": -174.43200844002982, "alt_km": 629.6853456338467, "timestamp": "2025-12-23T11:34:47.839751+00:00", "meta": {"OBJECT_NAME": "CSG-2", "OBJECT_ID": "2022-008A", "EPOCH": "2025-12-23T03:39:56.409408", "MEAN_MOTION": 14.82154785, "ECCENTRICITY": 0.0001508, "INCLINATION": 97.8801, "RA_OF_ASC_NODE": 178.3186, "ARG_OF_PERICENTER": 82.3975, "MEAN_ANOMALY": 277.7409, "EPHEMERIS_TYPE": 0, "CLASSIFICATION_TYPE": "U", "NORAD_CAT_ID": 51444, "ELEMENT_SET_NO": 999, "REV_AT_EPOCH": 21051, "BSTAR": 8.9463e-05, "MEAN_MOTION_DOT": 6.6e-06, "MEAN_MOTION_DDOT": 0}, "tle": {"line1": "1 51444U 22008A   25357.15273622  .00000660  00000+0  89463-4 0  9995", "line2": "2 51444  97.8801 178.3186 0001508  82.3975 277.7409 14.82154785210515"}}, "geometry": {"type": "Point", "coordinates": [-174.43200844002982, -41.03972855758449]}}]}